OBJECT_NAME,OBJECT_ID,EPOCH,MEAN_MOTION,ECCENTRICITY,INCLINATION,RA_OF_ASC_NODE,ARG_OF_PERICENTER,MEAN_ANOMALY,EPHEMERIS_TYPE,CLASSIFICATION_TYPE,NORAD_CAT_ID,ELEMENT_SET_NO,REV_AT_EPOCH,BSTAR,MEAN_MOTION_DOT,MEAN_MOTION_DDOT
GALAXY 34 (G-34),2022-128B,2026-07-02T20:24:26.441856,1.00268570,.00019557,0.0130,31.8533,68.7137,357.4298,0,U,54027,999,1407,0,.7E-6,0
ANGOSAT 2,2022-131A,2026-07-04T12:17:00.821184,1.00272058,.0000106,0.0177,112.3581,313.1006,64.3113,0,U,54033,999,1365,0,.148E-5,0
EUTELSAT HOTBIRD 13F,2022-134A,2026-07-05T00:12:55.655136,1.00271750,.00017877,0.0533,288.1902,76.8239,294.2402,0,U,54048,999,1355,0,.1E-5,0
LDPE-2,2022-144A,2026-07-04T16:38:25.829664,1.00540662,.00023272,5.6524,63.5060,101.0860,226.9349,0,U,54219,999,1201,0,.92E-6,0
EUTELSAT HOTBIRD 13G,2022-146A,2026-07-05T00:12:55.655136,1.00271116,.00023024,0.0485,213.2648,325.0620,120.9202,0,U,54225,999,764,0,.1E-5,0
ZHONGXING-19,2022-148A,2026-07-05T08:21:15.841728,1.00271044,.0003033,0.0433,253.7077,236.4803,81.6793,0,U,54230,999,1356,0,-.68E-6,0
GALAXY 31 (G-31),2022-153A,2026-07-05T04:42:37.779840,1.00272376,.00014241,0.0221,92.0355,12.7134,128.1013,0,U,54243,999,731,0,.26E-6,0
GALAXY 32 (G-32),2022-153B,2026-07-04T23:43:17.238144,1.00272054,.00018132,0.0095,351.1203,56.4825,140.2192,0,U,54244,999,1332,0,-.161E-5,0
EUTELSAT 10B,2022-157A,2026-07-05T05:20:03.291648,1.00272375,.00022224,0.0607,96.1782,15.0652,261.9980,0,U,54259,999,1320,0,.82E-6,0
GALAXY 35 (G-35),2022-170A,2026-07-05T04:50:34.358784,1.00272235,.00021743,0.0169,86.0659,19.4715,157.2060,0,U,54741,999,1307,0,-.149E-5,0
GALAXY 36 (G-36),2022-170B,2026-07-05T03:09:10.298880,1.00271654,.00027573,0.0180,120.7890,335.3383,145.3013,0,U,54742,999,1295,0,-.172E-5,0
METEOSAT-12 (MTG-I1),2022-170C,2026-07-05T05:17:03.578784,1.00276445,.00034896,0.7579,25.6679,76.0432,260.5733,0,U,54743,999,1315,0,.7E-7,0
SHIJIAN-23 (SJ-23),2023-002A,2026-07-02T18:38:54.470976,1.00083356,.0003517,3.7551,78.1245,278.1911,341.9054,0,U,55131,999,1266,0,-.31E-5,0
APSTAR-6E,2023-005A,2026-07-04T20:47:27.566592,1.00272774,.00017031,0.0452,215.0418,341.1520,172.5257,0,U,55239,999,1886,0,-.305E-5,0
USA 342,2023-008A,2026-07-01T03:52:39.557280,1.00270158,.0000567,0.0057,55.5286,166.1191,139.6640,0,U,55263,999,1265,0,0,0
LDPE-3A,2023-008B,2026-07-05T05:57:14.749632,0.99151454,.00015568,2.3919,81.4512,65.6146,43.4038,0,U,55264,999,1199,0,-.148E-5,0
ELEKTRO-L 4,2023-016A,2026-07-04T18:05:51.254016,1.00271961,.00011073,0.0963,136.6196,43.3138,180.0650,0,U,55506,999,1251,0,-.46E-6,0
AMAZONAS NEXUS,2023-017A,2026-07-04T22:09:05.978304,1.00270455,.00048231,0.0333,37.6901,42.8091,113.7123,0,U,55508,999,722,0,-.27E-5,0
ZHONGXING-26,2023-023A,2026-07-05T00:44:52.592064,1.00269854,.00031977,0.0622,70.4316,30.6934,318.2587,0,U,55686,999,1240,0,-.341E-5,0
LUCH-5X (OLYMP-K 2),2023-031A,2026-07-02T18:37:40.484064,1.00269692,.0001113,0.0299,86.0246,152.0734,24.0844,0,U,55841,999,1209,0,.44E-6,0
GAOFEN-13 02,2023-036A,2026-07-05T04:16:42.846816,1.00266908,.00034962,1.0239,3.2694,333.4948,158.7246,0,U,55912,999,1227,0,-.207E-5,0
SES-18,2023-038A,2026-07-05T03:05:10.683168,1.00272197,.00001687,0.0339,272.1469,274.3553,39.8234,0,U,55970,999,1228,0,-.88E-6,0
SES-19,2023-038B,2026-07-05T06:21:19.697184,1.00271031,.0001858,0.0412,280.6946,190.4526,132.5502,0,U,55971,999,1227,0,.101E-5,0
INTELSAT 40E (IS-40E),2023-052A,2026-07-05T03:08:32.859168,1.00269079,.00023732,0.0122,39.2506,99.7089,100.3151,0,U,56174,999,1200,0,0,0
VIASAT-3 F1,2023-060A,2026-07-02T15:16:13.435968,1.00272672,.00007614,0.0198,6.0968,100.5919,314.0664,0,U,56370,999,1158,0,0,0
ARCTURUS,2023-060B,2026-07-05T02:16:43.357728,1.00598163,.0000535,2.8199,79.7172,149.2059,175.5525,0,U,56371,999,1163,0,-.254E-5,0
GS-1,2023-060C,2026-07-04T23:49:42.279744,1.00269637,.00035631,2.7706,79.6229,280.5841,9.6388,0,U,56372,999,771,0,-.212E-5,0
BEIDOU-3 G4,2023-066A,2026-07-05T07:39:42.971904,1.00267489,.00050499,0.4689,336.0079,178.3194,23.9034,0,U,56564,999,1157,0,-.269E-5,0
ARABSAT-7B (BADR-8),2023-075A,2026-07-05T05:24:32.862240,1.00271282,.00036944,0.0737,29.4211,3.9398,356.9969,0,U,56757,999,1129,0,.158E-5,0
NVS-01 (IRNSS-1J),2023-076A,2026-07-05T04:11:30.952320,1.00270353,.00030969,2.1263,243.5442,7.8863,224.1944,0,U,56759,999,1129,0,-.322E-5,0
NUSANTARA TIGA (SATRIA),2023-086A,2026-07-04T23:08:13.100064,1.00269529,.00024746,0.0355,4.7310,337.7442,73.5486,0,U,57045,999,993,0,-.222E-5,0
