GALAXY 34 (G-34)        
1 54027U 22128B   26183.85030604  .00000070  00000+0  00000+0 0  9994
2 54027   0.0130  31.8533 0001955  68.7137 357.4298  1.00268570 14078
ANGOSAT 2               
1 54033U 22131A   26185.51181506  .00000148  00000+0  00000+0 0  9994
2 54033   0.0177 112.3581 0000106 313.1006  64.3113  1.00272058 13652
EUTELSAT HOTBIRD 13F    
1 54048U 22134A   26186.00897749  .00000100  00000+0  00000+0 0  9999
2 54048   0.0533 288.1902 0001787  76.8239 294.2402  1.00271750 13552
LDPE-2                  
1 54219U 22144A   26185.69335451  .00000092  00000+0  00000+0 0  9991
2 54219   5.6524  63.5060 0002327 101.0860 226.9349  1.00540662 12018
EUTELSAT HOTBIRD 13G    
1 54225U 22146A   26186.00897749  .00000100  00000+0  00000+0 0  9999
2 54225   0.0485 213.2648 0002302 325.0620 120.9202  1.00271116  7640
ZHONGXING-19            
1 54230U 22148A   26186.34810002 -.00000068  00000+0  00000+0 0  9995
2 54230   0.0433 253.7077 0003033 236.4803  81.6793  1.00271044 13560
GALAXY 31 (G-31)        
1 54243U 22153A   26186.19627060  .00000026  00000+0  00000+0 0  9991
2 54243   0.0221  92.0355 0001424  12.7134 128.1013  1.00272376  7313
GALAXY 32 (G-32)        
1 54244U 22153B   26185.98839396 -.00000161  00000+0  00000+0 0  9996
2 54244   0.0095 351.1203 0001813  56.4825 140.2192  1.00272054 13322
EUTELSAT 10B            
1 54259U 22157A   26186.22226032  .00000082  00000+0  00000+0 0  9992
2 54259   0.0607  96.1782 0002222  15.0652 261.9980  1.00272375 13208
GALAXY 35 (G-35)        
1 54741U 22170A   26186.20178656 -.00000149  00000+0  00000+0 0  9994
2 54741   0.0169  86.0659 0002174  19.4715 157.2060  1.00272235 13078
GALAXY 36 (G-36)        
1 54742U 22170B   26186.13136920 -.00000172  00000+0  00000+0 0  9991
2 54742   0.0180 120.7890 0002757 335.3383 145.3013  1.00271654 12959
METEOSAT-12 (MTG-I1)    
1 54743U 22170C   26186.22018031  .00000007  00000+0  00000+0 0  9990
2 54743   0.7579  25.6679 0003489  76.0432 260.5733  1.00276445 13159
SHIJIAN-23 (SJ-23)      
1 55131U 23002A   26183.77701934 -.00000310  00000+0  00000+0 0  9993
2 55131   3.7551  78.1245 0003517 278.1911 341.9054  1.00083356 12667
APSTAR-6E               
1 55239U 23005A   26185.86629128 -.00000305  00000+0  00000+0 0  9995
2 55239   0.0452 215.0418 0001703 341.1520 172.5257  1.00272774 18867
USA 342                 
1 55263U 23008A   26182.16156895  .00000000  00000+0  00000+0 0  9992
2 55263   0.0057  55.5286 0000567 166.1191 139.6640  1.00270158 12656
LDPE-3A                 
1 55264U 23008B   26186.24808738 -.00000148  00000+0  00000+0 0  9990
2 55264   2.3919  81.4512 0001556  65.6146  43.4038  0.99151454 11994
ELEKTRO-L 4             
1 55506U 23016A   26185.75406544 -.00000046  00000+0  00000+0 0  9999
2 55506   0.0963 136.6196 0001107  43.3138 180.0650  1.00271961 12510
AMAZONAS NEXUS          
1 55508U 23017A   26185.92298586 -.00000270  00000+0  00000+0 0  9995
2 55508   0.0333  37.6901 0004823  42.8091 113.7123  1.00270455  7224
ZHONGXING-26            
1 55686U 23023A   26186.03116426 -.00000341  00000+0  00000+0 0  9993
2 55686   0.0622  70.4316 0003197  30.6934 318.2587  1.00269854 12404
LUCH-5X (OLYMP-K 2)     
1 55841U 23031A   26183.77616301  .00000044  00000+0  00000+0 0  9999
2 55841   0.0299  86.0246 0001113 152.0734  24.0844  1.00269692 12098
GAOFEN-13 02            
1 55912U 23036A   26186.17827369 -.00000207  00000+0  00000+0 0  9990
2 55912   1.0239   3.2694 0003496 333.4948 158.7246  1.00266908 12276
SES-18                  
1 55970U 23038A   26186.12859587 -.00000088  00000+0  00000+0 0  9995
2 55970   0.0339 272.1469 0000168 274.3553  39.8234  1.00272197 12289
SES-19                  
1 55971U 23038B   26186.26481131  .00000101  00000+0  00000+0 0  9992
2 55971   0.0412 280.6946 0001858 190.4526 132.5502  1.00271031 12275
INTELSAT 40E (IS-40E)   
1 56174U 23052A   26186.13093587  .00000000  00000+0  00000+0 0  9992
2 56174   0.0122  39.2506 0002373  99.7089 100.3151  1.00269079 12000
VIASAT-3 F1             
1 56370U 23060A   26183.63626662  .00000000  00000+0  00000+0 0  9997
2 56370   0.0198   6.0968 0000761 100.5919 314.0664  1.00272672 11585
ARCTURUS                
1 56371U 23060B   26186.09494627 -.00000254  00000+0  00000+0 0  9997
2 56371   2.8199  79.7172 0000535 149.2059 175.5525  1.00598163 11633
GS-1                    
1 56372U 23060C   26185.99285046 -.00000212  00000+0  00000+0 0  9993
2 56372   2.7706  79.6229 0003563 280.5841   9.6388  1.00269637  7710
BEIDOU-3 G4             
1 56564U 23066A   26186.31924736 -.00000269  00000+0  00000+0 0  9997
2 56564   0.4689 336.0079 0005049 178.3194  23.9034  1.00267489 11576
ARABSAT-7B (BADR-8)     
1 56757U 23075A   26186.22538035  .00000158  00000+0  00000+0 0  9990
2 56757   0.0737  29.4211 0003694   3.9398 356.9969  1.00271282 11295
NVS-01 (IRNSS-1J)       
1 56759U 23076A   26186.17466380 -.00000322  00000+0  00000+0 0  9994
2 56759   2.1263 243.5442 0003096   7.8863 224.1944  1.00270353 11292
NUSANTARA TIGA (SATRIA) 
1 57045U 23086A   26185.96404051 -.00000222  00000+0  00000+0 0  9996
2 57045   0.0355   4.7310 0002474 337.7442  73.5486  1.00269529  9936
